[{"OBJECT_NAME":"YUNYAO-1 19","OBJECT_ID":"2024-009B","EPOCH":"2026-03-09T22:41:16.279584","MEAN_MOTION":15.16041229,"ECCENTRICITY":0.00054864,"INCLINATION":49.9832,"RA_OF_ASC_NODE":292.0338,"ARG_OF_PERICENTER":239.381,"MEAN_ANOMALY":120.6601,"EPHEMERIS_TYPE":0,"CLASSIFICATION_TYPE":"U","NORAD_CAT_ID":58759,"ELEMENT_SET_NO":999,"REV_AT_EPOCH":11960,"BSTAR":0.00060829215,"MEAN_MOTION_DOT":0.00011575,"MEAN_MOTION_DDOT":0},{"OBJECT_NAME":"OBJECT D","OBJECT_ID":"2025-108D","EPOCH":"2026-03-09T23:55:58.918944","MEAN_MOTION":15.17741465,"ECCENTRICITY":0.00119931,"INCLINATION":97.4751,"RA_OF_ASC_NODE":145.8386,"ARG_OF_PERICENTER":357.4422,"MEAN_ANOMALY":2.6748,"EPHEMERIS_TYPE":0,"CLASSIFICATION_TYPE":"U","NORAD_CAT_ID":64090,"ELEMENT_SET_NO":999,"REV_AT_EPOCH":4431,"BSTAR":0.00035350679,"MEAN_MOTION_DOT":7.081e-5,"MEAN_MOTION_DDOT":0}]
